{
    "links": {
        "self": "http://www.neowsapp.com/rest/v1/neo/3634119?api_key=iIulBulltgU6a56xZRHN4H3l9WmuAYTsLGpBGhQ2"
    },
    "id": "3634119",
    "neo_reference_id": "3634119",
    "name": "(2013 FT16)",
    "designation": "2013 FT16",
    "nasa_jpl_url": "http://ssd.jpl.nasa.gov/sbdb.cgi?sstr=3634119",
    "absolute_magnitude_h": 26.3,
    "estimated_diameter": {
        "kilometers": {
            "estimated_diameter_min": 0.0146067964,
            "estimated_diameter_max": 0.0326617897
        },
        "meters": {
            "estimated_diameter_min": 14.6067964271,
            "estimated_diameter_max": 32.6617897446
        },
        "miles": {
            "estimated_diameter_min": 0.0090762397,
            "estimated_diameter_max": 0.020295089
        },
        "feet": {
            "estimated_diameter_min": 47.92256199,
            "estimated_diameter_max": 107.1581062656
        }
    },
    "is_potentially_hazardous_asteroid": false,
    "close_approach_data": [
        {
            "close_approach_date": "2013-04-03",
            "close_approach_date_full": "2013-Apr-03 00:47",
            "epoch_date_close_approach": 1364950020000,
            "relative_velocity": {
                "kilometers_per_second": "5.2174486442",
                "kilometers_per_hour": "18782.815119048",
                "miles_per_hour": "11670.9108721663"
            },
            "miss_distance": {
                "astronomical": "0.0403291355",
                "lunar": "15.6880337095",
                "kilometers": "6033152.769741385",
                "miles": "3748827.295685713"
            },
            "orbiting_body": "Earth"
        },
        {
            "close_approach_date": "2059-02-25",
            "close_approach_date_full": "2059-Feb-25 07:19",
            "epoch_date_close_approach": 2813383140000,
            "relative_velocity": {
                "kilometers_per_second": "14.8572780868",
                "kilometers_per_hour": "53486.2011125574",
                "miles_per_hour": "33234.245352411"
            },
            "miss_distance": {
                "astronomical": "0.3557148536",
                "lunar": "138.3730780504",
                "kilometers": "53214184.425921832",
                "miles": "33065760.9225600016"
            },
            "orbiting_body": "Earth"
        }
    ],
    "orbital_data": {
        "orbit_id": "5",
        "orbit_determination_date": "2017-04-06 08:46:18",
        "first_observation_date": "2013-03-31",
        "last_observation_date": "2013-04-02",
        "data_arc_in_days": 2,
        "observations_used": 29,
        "orbit_uncertainty": "8",
        "minimum_orbit_intersection": ".0391351",
        "jupiter_tisserand_invariant": "4.221",
        "epoch_osculation": "2456383.5",
        "eccentricity": ".3648329563853722",
        "semi_major_axis": "1.636001519626699",
        "inclination": "4.831312528412642",
        "ascending_node_longitude": "11.29652521271701",
        "orbital_period": "764.3178124963028",
        "perihelion_distance": "1.039134248570329",
        "perihelion_argument": "184.3331489637899",
        "aphelion_distance": "2.23286879068307",
        "perihelion_time": "2456387.331395977508",
        "mean_anomaly": "358.1953808620553",
        "mean_motion": ".4710082561391847",
        "equinox": "J2000",
        "orbit_class": {
            "orbit_class_type": "AMO",
            "orbit_class_description": "Near-Earth asteroid orbits similar to that of 1221 Amor",
            "orbit_class_range": "1.017 AU < q (perihelion) < 1.3 AU"
        }
    },
    "is_sentry_object": false
}